[{"OBJECT_NAME":"STARLINK-31502","OBJECT_ID":"2024-056F","EPOCH":"2026-03-08T19:28:12.076896","MEAN_MOTION":15.27529889,"ECCENTRICITY":0.00018418,"INCLINATION":43.0012,"RA_OF_ASC_NODE":228.4246,"ARG_OF_PERICENTER":269.2505,"MEAN_ANOMALY":90.8136,"EPHEMERIS_TYPE":0,"CLASSIFICATION_TYPE":"U","NORAD_CAT_ID":59301,"ELEMENT_SET_NO":999,"REV_AT_EPOCH":11110,"BSTAR":-0.00019548807,"MEAN_MOTION_DOT":-5.629e-5,"MEAN_MOTION_DDOT":0},{"OBJECT_NAME":"TRANSPORTER-12 OBJECT BT","OBJECT_ID":"2025-009BT","EPOCH":"2026-03-09T17:08:24.281088","MEAN_MOTION":15.27872239,"ECCENTRICITY":0.00036816,"INCLINATION":97.4094,"RA_OF_ASC_NODE":151.5992,"ARG_OF_PERICENTER":313.5044,"MEAN_ANOMALY":46.5889,"EPHEMERIS_TYPE":0,"CLASSIFICATION_TYPE":"U","NORAD_CAT_ID":62674,"ELEMENT_SET_NO":999,"REV_AT_EPOCH":12136,"BSTAR":0.000510288,"MEAN_MOTION_DOT":0.00013824,"MEAN_MOTION_DDOT":0}]
